{"type":"FeatureCollection", "features": [
{"type":"Feature","geometry":{"type":"Polygon","coordinates":[[[23.34061,-33.43349],[23.35488,-33.44117],[23.39337,-33.44569],[23.423254,-33.441971],[23.46761,-33.44814],[23.49562,-33.44344],[23.51417,-33.46274],[23.604,-33.4964],[23.5962,-33.57252],[23.61677,-33.56958],[23.619889,-33.591483],[23.67498,-33.62587],[23.67044,-33.67256],[23.62878,-33.66933],[23.5859,-33.67275],[23.55652,-33.65154],[23.55553,-33.67296],[23.54127,-33.69954],[23.47536,-33.71766],[23.43994,-33.71739],[23.43007,-33.76176],[23.39504,-33.79264],[23.46805,-33.80748],[23.48799,-33.79149],[23.51792,-33.78562],[23.554015,-33.796355],[23.56195,-33.82894],[23.60806,-33.83293],[23.62027,-33.84324],[23.7033,-33.86406],[23.68305,-33.88394],[23.65523,-33.88739],[23.65362,-33.90921],[23.63459,-33.95205],[23.64675,-33.97025],[23.6491978,-34.0405046],[23.6363687,-34.183075],[23.6606488,-34.2254869],[23.7054935,-34.3341756],[23.9364799,-34.3506244],[24.2302136,-34.3715368],[24.4958371,-34.3904434],[24.8179795,-34.4133672],[24.8953687,-34.4080248],[25.0442804,-34.3766655],[25.4698436,-34.2869816],[25.6915314,-34.2402247],[25.7877157,-34.2171674],[26.0562774,-34.1311182],[26.3727581,-34.0296028],[26.6352691,-33.9373006],[26.7230193,-33.9022513],[26.7641649,-33.8827895],[26.8503359,-33.8355794],[26.9410861,-33.8167317],[26.9874026,-33.7993656],[27.0415335,-33.7680649],[27.0761057,-33.7627006],[27.1217482,-33.7470168],[27.1842817,-33.7147296],[27.2455897,-33.6911396],[27.3029556,-33.6455032],[27.3639093,-33.6170042],[27.3997006,-33.5869091],[27.4900684,-33.5319263],[27.5333083,-33.5126539],[27.5857493,-33.4781675],[27.6083828,-33.4676162],[27.676617,-33.4170776],[27.738554,-33.3868193],[27.800786,-33.3437971],[27.8780841,-33.2857529],[27.9589786,-33.2514859],[27.9917631,-33.2279184],[28.0498536,-33.2004243],[28.0970396,-33.1670491],[28.1356146,-33.1247556],[28.1687711,-33.1079493],[28.238536,-33.0618458],[28.2699454,-33.0332863],[28.3085479,-32.9830282],[28.3214249,-32.957649],[28.4006669,-32.9253481],[28.4387881,-32.8994913],[28.4846608,-32.8818913],[28.5298015,-32.8553329],[28.5601783,-32.828155],[28.5811806,-32.8004337],[28.6454983,-32.7682347],[28.7324204,-32.7015933],[28.7703723,-32.6556391],[28.8041322,-32.6353875],[28.8344238,-32.6092898],[28.8599595,-32.5760205],[28.9269095,-32.5233223],[28.9517326,-32.4919611],[28.993174,-32.4594734],[29.0349179,-32.4346889],[29.066664,-32.4077022],[29.0872015,-32.3818577],[29.129346,-32.341081],[29.1526609,-32.3118336],[29.1982446,-32.2637571],[29.2603848,-32.2170138],[29.2873422,-32.1874406],[29.3367499,-32.1141116],[29.3903056,-32.0760882],[29.468207,-31.9739865],[29.4925315,-31.9609426],[29.5278706,-31.9315739],[29.5636101,-31.8783808],[29.5914826,-31.8513917],[29.685777,-31.802146],[29.7236213,-31.7720252],[29.7735201,-31.73988],[29.8314451,-31.6939102],[29.8904352,-31.6365596],[29.946293,-31.6185831],[29.9995199,-31.5889908],[30.0563727,-31.5456087],[30.1297346,-31.4800672],[30.2405635,-31.3725036],[30.3167385,-31.2816702],[30.3399039,-31.2606101],[30.3719261,-31.2175963],[30.2267479,-31.1113343],[30.1929952,-31.0830388],[30.1870786,-31.0683663],[30.1623879,-31.0466207],[30.17003,-31.02538],[30.13997,-31.0141],[30.1414775,-30.9871375],[30.1344655,-30.9635256],[30.1466658,-30.9324925],[30.1197604,-30.8883077],[30.0888116,-30.8749067],[30.0941408,-30.8620905],[30.0621533,-30.8481356],[30.0213711,-30.8389394],[29.9647249,-30.8322942],[29.96577,-30.80823],[29.9325879,-30.8080272],[29.9463383,-30.7699507],[29.9062199,-30.7924599],[29.8930757,-30.7594723],[29.85247,-30.76167],[29.84961,-30.73958],[29.81373,-30.73169],[29.8144069,-30.7069253],[29.7801966,-30.6955959],[29.7708037,-30.7184981],[29.72964,-30.71586],[29.69958,-30.70139],[29.6739482,-30.6693763],[29.65152,-30.68584],[29.59577,-30.68585],[29.59419,-30.66744],[29.5712,-30.6558],[29.52429,-30.64116],[29.51236,-30.61822],[29.46859,-30.62416],[29.44299,-30.63904],[29.40134,-30.63944],[29.3728,-30.64896],[29.34564,-30.67173],[29.3225,-30.64448],[29.27732,-30.63728],[29.26133,-30.62116],[29.20487,-30.62014],[29.1819,-30.64095],[29.1681,-30.61308],[29.11526,-30.57962],[29.17306,-30.55284],[29.16551,-30.53819],[29.14483,-30.53099],[29.15036,-30.51039],[29.17731,-30.51573],[29.19836,-30.46234],[29.19677,-30.43439],[29.2382,-30.40494],[29.28244,-30.39573],[29.2770901,-30.37625],[29.30501,-30.3798599],[29.29186,-30.34564],[29.30186,-30.32012],[29.2622,-30.2784],[29.23146,-30.26906],[29.25472,-30.30483],[29.18811,-30.28874],[29.13717,-30.26234],[29.12632,-30.23787],[29.13221,-30.21636],[29.10394,-30.18076],[29.1200318,-30.1521787],[29.11936,-30.12248],[29.10734,-30.07849],[29.09013,-30.0567],[29.06783,-30.04404],[29.04495,-30.01297],[29.00589,-30.00443],[28.98533,-30.03137],[28.94079,-30.03652],[28.93574,-30.04945],[28.8687631,-30.0775035],[28.8311613,-30.0977015],[28.8075893,-30.0974003],[28.7910676,-30.109647],[28.7615474,-30.1055722],[28.6903138,-30.124573],[28.6664307,-30.1409892],[28.6359152,-30.1310564],[28.6195564,-30.1358582],[28.5911438,-30.1267067],[28.54972,-30.12106],[28.4998783,-30.1510503],[28.4577445,-30.1578746],[28.4000215,-30.1435691],[28.393017,-30.1611533],[28.3649611,-30.1686205],[28.3486533,-30.2019468],[28.3477763,-30.2320192],[28.3128565,-30.2413933],[28.2884055,-30.2582505],[28.2361088,-30.2601401],[28.2144988,-30.2864301],[28.2152688,-30.3068401],[28.2526888,-30.3233501],[28.2527688,-30.3421001],[28.2686988,-30.3517901],[28.2706888,-30.3708501],[28.25765,-30.41638],[28.23953,-30.41307],[28.22896,-30.43008],[28.17956,-30.43892],[28.15559,-30.47183],[28.17886,-30.48946],[28.17735,-30.52241],[28.15696,-30.54421],[28.16355,-30.55593],[28.15074,-30.5843],[28.11413,-30.59903],[28.1230927,-30.6673827],[28.0340902,-30.6552971],[28.0034477,-30.6594715],[27.9404823,-30.6445178],[27.8780736,-30.6133095],[27.78163,-30.6171599],[27.7419194,-30.6035287],[27.7170535,-30.5692187],[27.6953606,-30.5603502],[27.6932965,-30.5451443],[27.6640094,-30.5246087],[27.6212763,-30.5042911],[27.6013859,-30.4465289],[27.572481,-30.4481479],[27.5712032,-30.4272524],[27.53402,-30.38436],[27.50689,-30.38759],[27.47496,-30.35648],[27.47529,-30.3218],[27.46459,-30.31403],[27.41978,-30.32437],[27.39301,-30.33976],[27.36266,-30.3237],[27.3688,-30.37162],[27.3914,-30.35747],[27.40301,-30.39297],[27.37689,-30.40884],[27.34459,-30.39733],[27.32531,-30.42427],[27.36806,-30.43813],[27.33647,-30.45037],[27.31315,-30.44148],[27.29354,-30.45675],[27.32612,-30.47828],[27.28449,-30.5034],[27.2289339,-30.5009732],[27.20599,-30.50736],[27.18845,-30.52379],[27.13241,-30.50928],[27.13816,-30.53091],[27.10535,-30.55833],[27.08525,-30.52805],[27.04488,-30.5366],[27.00365,-30.53831],[27.04226,-30.58836],[27.02794,-30.60462],[27.00294,-30.59461],[26.9479,-30.60764],[26.9299,-30.62718],[26.94927,-30.65292],[26.94301,-30.66215],[26.89681,-30.66739],[26.87347,-30.68085],[26.84768,-30.68387],[26.81414,-30.64267],[26.77508,-30.64896],[26.75279,-30.66565],[26.7257,-30.66639],[26.70656,-30.68568],[26.68425,-30.68477],[26.67722,-30.66809],[26.65072,-30.69147],[26.62945,-30.69388],[26.62612,-30.66144],[26.57521,-30.66676],[26.55116,-30.66181],[26.52169,-30.6402],[26.48123,-30.62763],[26.49023,-30.59601],[26.4469,-30.56876],[26.42518,-30.56524],[26.39206,-30.58046],[26.37226,-30.58162],[26.34891,-30.59497],[26.31381,-30.58263],[26.29423,-30.591],[26.26457,-30.56383],[26.25965,-30.54072],[26.19383,-30.52798],[26.19411,-30.50376],[26.16256,-30.48349],[26.14918,-30.48397],[26.13007,-30.5049],[26.14937,-30.51996],[26.14958,-30.53504],[26.11764,-30.535],[26.098,-30.5165],[26.05199,-30.52273],[26.03284,-30.5313],[25.97309,-30.53939],[25.92681,-30.57027],[25.90271,-30.5428],[25.88488,-30.5442],[25.87485,-30.57279],[25.89252,-30.59823],[25.88801,-30.61208],[25.85929,-30.61372],[25.85123,-30.62933],[25.79983,-30.63479],[25.78203,-30.64633],[25.7789,-30.67588],[25.74975,-30.68246],[25.70014,-30.67951],[25.68184,-30.66888],[25.68519,-30.64658],[25.67156,-30.64088],[25.63086,-30.65935],[25.61048,-30.64724],[25.6232,-30.63197],[25.60309,-30.59439],[25.59087,-30.59074],[25.55628,-30.61663],[25.52988,-30.61302],[25.49806,-30.627],[25.45648,-30.637],[25.4585,-30.65745],[25.47187,-30.67292],[25.46023,-30.68328],[25.47393,-30.72312],[25.4802,-30.77891],[25.50498,-30.78363],[25.52485,-30.7964],[25.54933,-30.79098],[25.52163,-30.83318],[25.48517,-30.8498],[25.47129,-30.86984],[25.51759,-30.90339],[25.50462,-30.93298],[25.51095,-30.95572],[25.47502,-30.98388],[25.48484,-31.00633],[25.5016,-31.00739],[25.48675,-31.03691],[25.46378,-31.05474],[25.43884,-31.06149],[25.45429,-31.0793],[25.44639,-31.1002],[25.4156,-31.1344],[25.39816,-31.13068],[25.38456,-31.15097],[25.37782,-31.19887],[25.38621,-31.21784],[25.35442,-31.236],[25.29058,-31.21348],[25.28494,-31.22341],[25.22504,-31.1952],[25.20482,-31.2151],[25.17913,-31.22223],[25.17048,-31.23918],[25.13068,-31.2394],[25.10079,-31.25945],[25.07346,-31.25327],[25.05847,-31.26938],[25.00562,-31.2631],[24.96047,-31.28551],[24.94197,-31.31507],[24.88503,-31.31727],[24.85299,-31.32821],[24.86286,-31.37361],[24.8255,-31.35651],[24.78868,-31.38946],[24.70481,-31.40059],[24.66499,-31.38366],[24.5961,-31.39918],[24.56719,-31.41864],[24.55885,-31.48184],[24.51944,-31.4979],[24.53303,-31.50978],[24.52455,-31.54543],[24.50391,-31.56842],[24.52296,-31.60369],[24.51413,-31.70497],[24.46994,-31.70648],[24.44125,-31.71261],[24.34599,-31.71448],[24.32469,-31.72406],[24.31403,-31.7513],[24.26825,-31.76667],[24.2258,-31.74755],[24.16159,-31.74015],[24.14741,-31.76728],[24.15433,-31.79831],[24.1837,-31.81328],[24.15483,-31.82248],[24.15332,-31.85491],[24.12377,-31.84722],[24.10538,-31.90685],[24.1642,-31.90241],[24.1972,-31.92349],[24.18804,-31.93363],[24.22241,-31.95564],[24.18303,-31.99594],[24.17448,-32.01994],[24.14087,-32.01171],[24.12329,-32.05593],[24.10443,-32.06764],[24.109675,-32.08429],[24.13544,-32.09786],[24.13553,-32.12314],[24.102235,-32.14883],[24.10013,-32.164],[24.03803,-32.15813],[24.04393,-32.18195],[24.03053,-32.19348],[23.98583,-32.19783],[23.96115,-32.20652],[23.93524,-32.23196],[23.92096,-32.23342],[23.8923,-32.25495],[23.85108,-32.24252],[23.79785,-32.19407],[23.76623,-32.17873],[23.74707,-32.20068],[23.70817,-32.21915],[23.69241,-32.23346],[23.67045,-32.23767],[23.64887,-32.29802],[23.67837,-32.32911],[23.66515,-32.34423],[23.59178,-32.34077],[23.52359,-32.32876],[23.44896,-32.32327],[23.42465,-32.35624],[23.40985,-32.3892],[23.34926,-32.36441],[23.33305,-32.35114],[23.30733,-32.39592],[23.27214,-32.40066],[23.22161,-32.42504],[23.24754,-32.46533],[23.24447,-32.51323],[23.288155,-32.55121],[23.30729,-32.61165],[23.30131,-32.65179],[23.26957,-32.67148],[23.33286,-32.70361],[23.3535,-32.72944],[23.3516,-32.76379],[23.397737,-32.76348],[23.37862,-32.82502],[23.30517,-32.8095],[23.25041,-32.78858],[23.2011,-32.785355],[23.18747,-32.76743],[23.14933,-32.76674],[23.08935,-32.79918],[23.11642,-32.85799],[23.09801,-32.87369],[23.00744,-32.87282],[23.00368,-32.89828],[22.94875,-32.95004],[22.96925,-32.99337],[22.93521,-33.01304],[22.95785,-33.04506],[22.95531,-33.07314],[22.89227,-33.14163],[22.877208,-33.186904],[22.84022,-33.22021],[22.79026,-33.30731],[22.77339,-33.32626],[22.73927,-33.32398],[22.73574,-33.39477],[22.7845,-33.41553],[22.93478,-33.42914],[23.06638,-33.40034],[23.11289,-33.40081],[23.1348,-33.38762],[23.19533,-33.38615],[23.297125,-33.38864],[23.34061,-33.43349]]]},"properties":{"type":"relation","id":88574,"tags":{"ISO3166-2":"ZA-EC","admin_level":"4","alt_name:es":"Provincia del Cabo Oriental","alt_name:hr":"Eastern Cape","alt_name:ru":"Восточная Капская провинция","alt_name:xh":"IPhondo laseMpuma-Koloni","boundary":"administrative","name":"Eastern Cape","name:af":"Oos-Kaap","name:ar":"كيب الشرقية","name:ast":"Cabu Oriental","name:az":"Şərqi Keyp vilayəti","name:be":"Усходне-Капская правінцыя","name:be-tarask":"Усходняя Капская правінцыя","name:bg":"Източен Кейп","name:bn":"পূর্ব কেপ","name:br":"Kab ar Reter","name:ca":"Cap Oriental","name:ceb":"Eastern Cape","name:cs":"Východní Kapsko","name:da":"Øst-Kapprovinsen","name:de":"Ostkap","name:en":"Eastern Cape","name:eo":"Orienta Kablando","name:es":"El Cabo Oriental","name:et":"Ida-Kapimaa provints","name:eu":"Lurmutur Ekialdea","name:fa":"کیپ شرقی","name:fi":"Itä-Kap","name:fo":"Eastern Cape","name:fr":"Cap-Oriental","name:frr":"Uastkap","name:gl":"Cabo Oriental","name:hak":"Tûng Cape-sén","name:he":"הכף המזרחי","name:hi":"पूर्वी केप प्रान्त","name:hr":"Istočni rt","name:hu":"Kelet-Fokföld","name:hy":"Արևելյան Կապ","name:id":"Eastern Cape","name:it":"Provincia del Capo Orientale","name:ja":"東ケープ州","name:ka":"აღმოსავლეთი კაპლანდი","name:ko":"이스턴케이프주","name:la":"Caput orientale","name:lt":"Rytų Kyšulio provincija","name:lv":"Austrumkāpa","name:mk":"Источен Кејп","name:ml":"കിഴക്കൻ കേപ്","name:mr":"ईस्टर्न केप","name:ms":"Cape Timur","name:nan":"Tang Cape Séng","name:nl":"Oost-Kaap","name:nn":"Eastern Cape","name:no":"IMpuma-Koloni","name:nso":"Kapa Bohlabela","name:ny":"Eastern Cape","name:pl":"Prowincja Przylądkowa Wschodnia","name:pnb":"لیندا کیپ","name:pt":"Cabo Oriental","name:ro":"Provincia Eastern Cape","name:ru":"Восточно-Капская провинция","name:sh":"Istočni Kaap","name:short":"EC","name:so":"Eastern Cape Province","name:sr":"Источни Кејп","name:ss":"Eastern Cape","name:st":"Kapa Botjhabela","name:sv":"Östra Kapprovinsen","name:sw":"Rasi ya Mashariki","name:ta":"கிழக்கு கேப்","name:tn":"Kapa Botlhaba","name:tr":"Doğu Kap","name:uk":"Східнокапська провінція","name:ur":"مشرقی کیپ","name:ve":"Kapa Vhubvaḓuvha","name:vi":"Đông Cape","name:war":"Sinirangan Cape","name:wuu":"东开普省","name:xh":"Mpuma-Koloni","name:yo":"Eastern Cape","name:yue":"東開普","name:zh":"東開普省","name:zu":"KwaXhosa","ref":"EC","type":"boundary","wikidata":"Q130840","wikipedia":"en:Eastern Cape"},"relations":[],"meta":{},"name":"Eastern Cape"},"id":"relation/88574"}
]}