{"type":"FeatureCollection", "features": [
{"type":"Feature","geometry":{"type":"Polygon","coordinates":[[[23.34061,-33.43349],[23.297125,-33.38864],[23.1348,-33.38762],[22.93478,-33.42914],[22.7845,-33.41553],[22.73574,-33.39477],[22.73927,-33.32398],[22.77339,-33.32626],[22.84022,-33.22021],[22.877208,-33.186904],[22.89227,-33.14163],[22.95531,-33.07314],[22.95785,-33.04506],[22.93521,-33.01304],[22.96925,-32.99337],[22.94875,-32.95004],[23.00368,-32.89828],[23.00744,-32.87282],[23.09801,-32.87369],[23.11642,-32.85799],[23.08935,-32.79918],[23.14933,-32.76674],[23.2011,-32.785355],[23.25041,-32.78858],[23.30517,-32.8095],[23.37862,-32.82502],[23.397737,-32.76348],[23.3516,-32.76379],[23.3535,-32.72944],[23.33286,-32.70361],[23.26957,-32.67148],[23.30131,-32.65179],[23.30729,-32.61165],[23.288155,-32.55121],[23.24447,-32.51323],[23.24754,-32.46533],[23.22161,-32.42504],[23.30733,-32.39592],[23.33305,-32.35114],[23.40985,-32.3892],[23.44896,-32.32327],[23.59178,-32.34077],[23.66515,-32.34423],[23.64887,-32.29802],[23.67045,-32.23767],[23.74707,-32.20068],[23.79785,-32.19407],[23.85108,-32.24252],[23.8923,-32.25495],[23.96115,-32.20652],[24.03053,-32.19348],[24.03803,-32.15813],[24.10013,-32.164],[24.13553,-32.12314],[24.109675,-32.08429],[24.14087,-32.01171],[24.18303,-31.99594],[24.22241,-31.95564],[24.1642,-31.90241],[24.10538,-31.90685],[24.12377,-31.84722],[24.15332,-31.85491],[24.15246,-31.78861],[24.07094,-31.80709],[24.02852,-31.73017],[24.04672,-31.70668],[23.96306,-31.70667],[23.94866,-31.77333],[23.91786,-31.79536],[23.91587,-31.822],[23.87863,-31.83368],[23.83785,-31.78334],[23.80852,-31.76366],[23.84762,-31.72922],[23.75649,-31.69571],[23.71513,-31.64704],[23.63948,-31.6601],[23.61914,-31.64943],[23.57453,-31.68917],[23.49611,-31.70269],[23.42314,-31.68214],[23.40709,-31.7138],[23.34511,-31.71089],[23.30242,-31.73015],[23.26344,-31.77834],[23.26236,-31.81539],[23.22503,-31.85404],[23.23037,-31.87569],[23.13945,-31.95154],[23.08762,-31.97229],[23.05259,-31.93978],[23.06739,-31.89074],[22.97583,-31.86083],[22.90195,-31.87577],[22.87472,-31.86164],[22.85897,-31.81829],[22.77688,-31.85691],[22.7351,-31.79938],[22.65153,-31.82167],[22.57834,-31.80551],[22.61907,-31.72465],[22.56614,-31.71317],[22.564815,-31.67792],[22.49576,-31.67034],[22.31229,-31.58346],[22.27292,-31.59254],[22.2601,-31.66247],[22.20401,-31.76403],[22.20628,-31.79225],[22.17688,-31.82072],[22.1666,-31.89309],[22.1315,-31.88426],[22.10144,-31.89872],[22.07133,-31.9393],[22.09498,-32.00106],[22.074125,-32.017915],[22.11995,-32.07697],[22.08965,-32.14638],[22.06956,-32.08145],[22.01644,-32.11426],[21.99592,-32.20298],[21.936205,-32.22288],[21.9246,-32.26196],[21.85511,-32.27551],[21.78062,-32.25093],[21.773,-32.22679],[21.73589,-32.20502],[21.69165,-32.24857],[21.64458,-32.20871],[21.53601,-32.22922],[21.56181,-32.31473],[21.51908,-32.33703],[21.47564,-32.33145],[21.42988,-32.37518],[21.4084,-32.36877],[21.30301,-32.40244],[21.26948,-32.45029],[21.23109,-32.46315],[21.18208,-32.50868],[21.14011,-32.58977],[21.15698,-32.62894],[21.06029,-32.6555],[20.96278,-32.6393],[20.8441,-32.66244],[20.7922,-32.73503],[20.83034,-32.78457],[20.83243,-32.81737],[20.79856,-32.89475],[20.74421,-32.91289],[20.73117,-32.944995],[20.5921,-32.92647],[20.56123,-32.88097],[20.4993,-32.94163],[20.4386,-32.94006],[20.38005,-32.90185],[20.2999,-32.80496],[20.21904,-32.78474],[20.18761,-32.75267],[20.19172,-32.68576],[20.14119,-32.64374],[20.12279,-32.55698],[20.09681,-32.50296],[20.0801816,-32.3975004],[20.1318532,-32.4210121],[20.1711816,-32.3803824],[20.16352,-32.35102],[20.21603,-32.30316],[20.2530132,-32.3112475],[20.2406066,-32.2241459],[20.16636,-32.22749],[20.18095,-32.18449],[20.13591,-32.19232],[20.09696,-32.25024],[20.05361,-32.25231],[20.03904,-32.29581],[19.9376834,-32.3770847],[19.8739234,-32.3828103],[19.8176965,-32.3603125],[19.8023431,-32.3933333],[19.7292826,-32.4419868],[19.67974,-32.46351],[19.6542833,-32.4384535],[19.6213335,-32.4702607],[19.62647,-32.50204],[19.60712,-32.54538],[19.60495,-32.62946],[19.52825,-32.67324],[19.486805,-32.56544],[19.49637,-32.47482],[19.4302,-32.36571],[19.40908,-32.29008],[19.4915,-32.25237],[19.50139,-32.17987],[19.47522,-32.14629],[19.51519,-32.1152],[19.5075,-32.08609],[19.46671,-32.07181],[19.39585,-32.01511],[19.36297,-32.04284],[19.32978,-32.01258],[19.32335,-31.9848],[19.26484,-31.96574],[19.28968,-31.86304],[19.21071,-31.94804],[19.19968,-31.90477],[19.14245,-31.91208],[19.03458,-31.8762],[19.03046,-31.83362],[19.08627,-31.79448],[19.06667,-31.7658],[19.09466,-31.75021],[19.06556,-31.70631],[19.07051,-31.62405],[19.09052,-31.59778],[19.08542,-31.52693],[19.01968,-31.49925],[19.04299,-31.42497],[19.03088,-31.38954],[18.98013,-31.35524],[19.01301,-31.30568],[18.96642,-31.28449],[18.94446,-31.23732],[18.9476,-31.11291],[18.90347,-31.04178],[18.91177,-30.97893],[18.98449,-30.94581],[18.87539,-30.88706],[18.96047,-30.86611],[18.9519,-30.74474],[18.8629704,-30.7171192],[18.7945004,-30.6676197],[18.79587,-30.62486],[18.7587109,-30.5678692],[18.6551495,-30.5567093],[18.57012,-30.43026],[18.50215,-30.44442],[18.48362,-30.52191],[18.44409,-30.51129],[18.41376,-30.52735],[18.37115,-30.59209],[18.37104,-30.65963],[18.26417,-30.81832],[18.21354,-30.81044],[18.16918,-30.84856],[18.08918,-30.78787],[18.05792,-30.77689],[18.006479,-30.79124],[17.99484,-30.81922],[17.99338,-30.91874],[17.97208,-30.91387],[17.8803,-30.92394],[17.87792,-30.94865],[17.92641,-31.01139],[17.81132,-31.09254],[17.83442,-31.17652],[17.76041,-31.15182],[17.5687857,-31.2679662],[17.6523341,-31.3612444],[17.6699486,-31.4071488],[17.7145016,-31.4715808],[17.8528483,-31.6254292],[17.8967946,-31.6668344],[17.9427836,-31.743879],[17.9974682,-31.817426],[18.0096636,-31.8828186],[18.0324463,-31.9239318],[18.0378976,-31.9849016],[18.0678185,-32.0729567],[18.0659588,-32.1204599],[18.0877079,-32.2336721],[17.6952931,-32.6048115],[17.6627218,-32.6439631],[17.6155508,-32.7754469],[17.6100744,-32.851444],[17.6371848,-33.0244611],[17.6572193,-33.0823927],[17.6953358,-33.1474111],[17.7619777,-33.2358674],[17.8560173,-33.495219],[18.088074,-34.2020639],[18.1573837,-34.3478215],[18.1950513,-34.4119271],[18.2688284,-34.4807486],[18.3655753,-34.5365209],[18.4482865,-34.5563621],[18.7460414,-34.581251],[19.2983403,-34.8702118],[19.5320994,-34.9615869],[19.6252611,-34.9851886],[19.9644682,-35.0319952],[20.0356327,-35.0324079],[20.1250809,-35.0091939],[20.916269,-34.6685594],[21.3277047,-34.6370959],[21.7589272,-34.5942504],[21.8654243,-34.5755608],[21.9940099,-34.5450129],[22.0647612,-34.5116201],[22.260436,-34.3781392],[22.6677693,-34.3314075],[22.9900145,-34.2944191],[23.3898654,-34.3116942],[23.7054935,-34.3341756],[23.6606488,-34.2254869],[23.6363687,-34.183075],[23.6491978,-34.0405046],[23.64675,-33.97025],[23.63459,-33.95205],[23.65523,-33.88739],[23.7033,-33.86406],[23.56195,-33.82894],[23.554015,-33.796355],[23.51792,-33.78562],[23.46805,-33.80748],[23.39504,-33.79264],[23.43007,-33.76176],[23.43994,-33.71739],[23.54127,-33.69954],[23.55553,-33.67296],[23.67044,-33.67256],[23.67498,-33.62587],[23.5962,-33.57252],[23.604,-33.4964],[23.51417,-33.46274],[23.49562,-33.44344],[23.39337,-33.44569],[23.34061,-33.43349]]]},"properties":{"type":"relation","id":80501,"tags":{"ISO3166-2":"ZA-WC","admin_level":"4","alt_name:es":"Provincia del Cabo Occidental","alt_name:hr":"Western Cape","alt_name:ru":"Западная Капская провинция","alt_name:xh":"IPhondo yaNtshona-Koloni","boundary":"administrative","name":"Western Cape","name:af":"Wes-Kaap","name:ar":"كيب الغربية","name:ast":"Provincia Cabu Occidental","name:az":"Qərbi Keyp vilayəti","name:be":"Заходне-Капская правінцыя","name:bg":"Западен Кейп","name:bn":"পশ্চিম কেপ","name:br":"Kab ar C'hornaoueg","name:ca":"Cap Occidental","name:ceb":"Western Cape","name:cs":"Západní Kapsko","name:da":"Vest-Kapprovinsen","name:de":"Westkap","name:en":"Western Cape","name:eo":"Okcidenta Kablando","name:es":"El Cabo Occidental","name:et":"Lääne-Kapimaa provints","name:eu":"Lurmutur Mendebaldea","name:fa":"کیپ غربی","name:fi":"Länsi-Kap","name:fo":"Western Cape","name:fr":"Cap occidental","name:frr":"Waastkap","name:gl":"Cabo Occidental","name:hak":"Sî Cape-sén","name:he":"הכף המערבי","name:hi":"पश्चिमी केप प्रान्त","name:hr":"Zapadni rt","name:hu":"Nyugat-Fokföld","name:hy":"Արևմտյան Կապ","name:id":"Western Cape","name:it":"Provincia del Capo Occidentale","name:ja":"西ケープ州","name:ka":"დასავლეთი კაპლანდი","name:ko":"웨스턴케이프주","name:lt":"Vakarų Kyšulio provincija","name:lv":"Rietumkāpa","name:mk":"Западен Кејп","name:ml":"പടിഞ്ഞാറൻ കേപ്","name:mr":"वेस्टर्न केप","name:ms":"Cape Barat","name:nan":"Sai Cape Séng","name:nl":"West-Kaap","name:nn":"Western Cape","name:no":"Wes-Kaap","name:nso":"Kapa Bodikela","name:ny":"Western Cape","name:pl":"Prowincja Przylądkowa Zachodnia","name:pnb":"چڑھدا کیپ","name:pt":"Cabo Ocidental","name:ro":"Provincia Western Cape","name:ru":"Западно-Капская провинция","name:sco":"Wastren Cape","name:sh":"Zapadni Kaap","name:short":"WC","name:sk":"Západné Kapsko","name:so":"Western Cape Province","name:sr":"Западни Кејп","name:ss":"Western Cape","name:st":"Kapa Bophirimela","name:sv":"Västra Kapprovinsen","name:sw":"Rasi ya Magharibi","name:ta":"மேற்கு கேப்","name:th":"จังหวัดเวสเทิร์นเคป","name:tn":"Kapa Bophirima","name:tr":"Batı Kap","name:uk":"Західнокапська провінція","name:ur":"مغربی کیپ","name:ve":"Kapa Vhukovhela","name:vi":"Tây Cape","name:war":"Katundan Cape","name:wuu":"西开普省","name:xh":"Ntshona-Koloni","name:yo":"Western Cape","name:yue":"西開普","name:zh":"西開普省","name:zu":"INtshonalanga Kapa","ref":"WC","type":"boundary","wikidata":"Q127167","wikipedia":"en:Western Cape"},"relations":[],"meta":{},"name":"Western Cape"},"id":"relation/80501"}
]}